CCSDS_OMM_VERS = 2.0
CREATION_DATE  = 
ORIGINATOR     = 

OBJECT_NAME    = RAISE-4
OBJECT_ID      = 2025-297B
CENTER_NAME    = EARTH
REF_FRAME      = TEME
TIME_SYSTEM    = UTC
MEAN_ELEMENT_THEORY = SGP/SGP4

EPOCH          = 2026-01-03T16:10:10.466400
MEAN_MOTION    = 15.07383780
ECCENTRICITY   = .00114113
INCLINATION    = 97.4867
RA_OF_ASC_NODE = 155.6339
ARG_OF_PERICENTER = 238.0293
MEAN_ANOMALY   = 121.9826

EPHEMERIS_TYPE = 0
CLASSIFICATION_TYPE = U
NORAD_CAT_ID   = 67073
ELEMENT_SET_NO = 999
REV_AT_EPOCH   = 309
BSTAR          = .54388329E-3
MEAN_MOTION_DOT = .8183E-4
MEAN_MOTION_DDOT = 0

CCSDS_OMM_VERS = 2.0
CREATION_DATE  = 
ORIGINATOR     = 

OBJECT_NAME    = ELECTRON KICK STAGE R/B
OBJECT_ID      = 2025-297C
CENTER_NAME    = EARTH
REF_FRAME      = TEME
TIME_SYSTEM    = UTC
MEAN_ELEMENT_THEORY = SGP/SGP4

EPOCH          = 2026-01-03T08:51:18.765216
MEAN_MOTION    = 15.68270647
ECCENTRICITY   = .01635019
INCLINATION    = 97.4777
RA_OF_ASC_NODE = 156.9836
ARG_OF_PERICENTER = 190.8705
MEAN_ANOMALY   = 168.9009

EPHEMERIS_TYPE = 0
CLASSIFICATION_TYPE = U
NORAD_CAT_ID   = 67074
ELEMENT_SET_NO = 999
REV_AT_EPOCH   = 315
BSTAR          = .23083348E-2
MEAN_MOTION_DOT = .558413E-2
MEAN_MOTION_DDOT = .96053433E-4

CCSDS_OMM_VERS = 2.0
CREATION_DATE  = 
ORIGINATOR     = 

OBJECT_NAME    = STARLINK-36230
OBJECT_ID      = 2025-298A
CENTER_NAME    = EARTH
REF_FRAME      = TEME
TIME_SYSTEM    = UTC
MEAN_ELEMENT_THEORY = SGP/SGP4

EPOCH          = 2026-01-03T14:00:01.999872
MEAN_MOTION    = 15.52552115
ECCENTRICITY   = .00037298
INCLINATION    = 69.9991
RA_OF_ASC_NODE = 188.4018
ARG_OF_PERICENTER = 273.1957
MEAN_ANOMALY   = 351.0896

EPHEMERIS_TYPE = 0
CLASSIFICATION_TYPE = U
NORAD_CAT_ID   = 67075
ELEMENT_SET_NO = 999
REV_AT_EPOCH   = 448
BSTAR          = -.15203818E-2
MEAN_MOTION_DOT = -.92739E-3
MEAN_MOTION_DDOT = 0

CCSDS_OMM_VERS = 2.0
CREATION_DATE  = 
ORIGINATOR     = 

OBJECT_NAME    = STARLINK-36240
OBJECT_ID      = 2025-298B
CENTER_NAME    = EARTH
REF_FRAME      = TEME
TIME_SYSTEM    = UTC
MEAN_ELEMENT_THEORY = SGP/SGP4

EPOCH          = 2026-01-03T14:00:01.999872
MEAN_MOTION    = 15.52561595
ECCENTRICITY   = .00035308
INCLINATION    = 69.9993
RA_OF_ASC_NODE = 188.3987
ARG_OF_PERICENTER = 265.4446
MEAN_ANOMALY   = 0.7526

EPHEMERIS_TYPE = 0
CLASSIFICATION_TYPE = U
NORAD_CAT_ID   = 67076
ELEMENT_SET_NO = 999
REV_AT_EPOCH   = 448
BSTAR          = -.17402925E-2
MEAN_MOTION_DOT = -.105985E-2
MEAN_MOTION_DDOT = 0

CCSDS_OMM_VERS = 2.0
CREATION_DATE  = 
ORIGINATOR     = 

OBJECT_NAME    = STARLINK-36243
OBJECT_ID      = 2025-298C
CENTER_NAME    = EARTH
REF_FRAME      = TEME
TIME_SYSTEM    = UTC
MEAN_ELEMENT_THEORY = SGP/SGP4

EPOCH          = 2026-01-03T14:00:01.999872
MEAN_MOTION    = 15.52562696
ECCENTRICITY   = .00032623
INCLINATION    = 69.9994
RA_OF_ASC_NODE = 188.3965
ARG_OF_PERICENTER = 268.0794
MEAN_ANOMALY   = 0.0329

EPHEMERIS_TYPE = 0
CLASSIFICATION_TYPE = U
NORAD_CAT_ID   = 67077
ELEMENT_SET_NO = 999
REV_AT_EPOCH   = 448
BSTAR          = -.1783832E-2
MEAN_MOTION_DOT = -.108596E-2
MEAN_MOTION_DDOT = 0

CCSDS_OMM_VERS = 2.0
CREATION_DATE  = 
ORIGINATOR     = 

OBJECT_NAME    = STARLINK-36236
OBJECT_ID      = 2025-298D
CENTER_NAME    = EARTH
REF_FRAME      = TEME
TIME_SYSTEM    = UTC
MEAN_ELEMENT_THEORY = SGP/SGP4

EPOCH          = 2026-01-03T14:00:01.999872
MEAN_MOTION    = 15.52544439
ECCENTRICITY   = .00032971
INCLINATION    = 69.9992
RA_OF_ASC_NODE = 188.3945
ARG_OF_PERICENTER = 271.4287
MEAN_ANOMALY   = 358.6043

EPHEMERIS_TYPE = 0
CLASSIFICATION_TYPE = U
NORAD_CAT_ID   = 67078
ELEMENT_SET_NO = 999
REV_AT_EPOCH   = 448
BSTAR          = -.12443213E-2
MEAN_MOTION_DOT = -.76062E-3
MEAN_MOTION_DDOT = 0

CCSDS_OMM_VERS = 2.0
CREATION_DATE  = 
ORIGINATOR     = 

OBJECT_NAME    = STARLINK-36159
OBJECT_ID      = 2025-298E
CENTER_NAME    = EARTH
REF_FRAME      = TEME
TIME_SYSTEM    = UTC
MEAN_ELEMENT_THEORY = SGP/SGP4

EPOCH          = 2026-01-03T14:00:01.999872
MEAN_MOTION    = 15.42688796
ECCENTRICITY   = .0003533
INCLINATION    = 69.9996
RA_OF_ASC_NODE = 188.5337
ARG_OF_PERICENTER = 265.0528
MEAN_ANOMALY   = 245.1099

EPHEMERIS_TYPE = 0
CLASSIFICATION_TYPE = U
NORAD_CAT_ID   = 67079
ELEMENT_SET_NO = 999
REV_AT_EPOCH   = 448
BSTAR          = .58546884E-3
MEAN_MOTION_DOT = .25556E-3
MEAN_MOTION_DDOT = 0

CCSDS_OMM_VERS = 2.0
CREATION_DATE  = 
ORIGINATOR     = 

OBJECT_NAME    = STARLINK-36158
OBJECT_ID      = 2025-298F
CENTER_NAME    = EARTH
REF_FRAME      = TEME
TIME_SYSTEM    = UTC
MEAN_ELEMENT_THEORY = SGP/SGP4

EPOCH          = 2026-01-03T14:00:01.999872
MEAN_MOTION    = 15.52549766
ECCENTRICITY   = .00034009
INCLINATION    = 69.9990
RA_OF_ASC_NODE = 188.3895
ARG_OF_PERICENTER = 269.7360
MEAN_ANOMALY   = 4.1282

EPHEMERIS_TYPE = 0
CLASSIFICATION_TYPE = U
NORAD_CAT_ID   = 67080
ELEMENT_SET_NO = 999
REV_AT_EPOCH   = 442
BSTAR          = -.13631837E-2
MEAN_MOTION_DOT = -.83254E-3
MEAN_MOTION_DDOT = 0

CCSDS_OMM_VERS = 2.0
CREATION_DATE  = 
ORIGINATOR     = 

OBJECT_NAME    = STARLINK-35864
OBJECT_ID      = 2025-298G
CENTER_NAME    = EARTH
REF_FRAME      = TEME
TIME_SYSTEM    = UTC
MEAN_ELEMENT_THEORY = SGP/SGP4

EPOCH          = 2026-01-03T14:00:01.999872
MEAN_MOTION    = 15.52543284
ECCENTRICITY   = .00033622
INCLINATION    = 69.9995
RA_OF_ASC_NODE = 188.3885
ARG_OF_PERICENTER = 266.5739
MEAN_ANOMALY   = 9.1944

EPHEMERIS_TYPE = 0
CLASSIFICATION_TYPE = U
NORAD_CAT_ID   = 67081
ELEMENT_SET_NO = 999
REV_AT_EPOCH   = 448
BSTAR          = -.51021463E-3
MEAN_MOTION_DOT = -.3146E-3
MEAN_MOTION_DDOT = 0

CCSDS_OMM_VERS = 2.0
CREATION_DATE  = 
ORIGINATOR     = 

OBJECT_NAME    = STARLINK-36035
OBJECT_ID      = 2025-298H
CENTER_NAME    = EARTH
REF_FRAME      = TEME
TIME_SYSTEM    = UTC
MEAN_ELEMENT_THEORY = SGP/SGP4

EPOCH          = 2026-01-03T14:00:01.999872
MEAN_MOTION    = 15.51958612
ECCENTRICITY   = .00035049
INCLINATION    = 69.9994
RA_OF_ASC_NODE = 188.3873
ARG_OF_PERICENTER = 268.7938
MEAN_ANOMALY   = 8.7338

EPHEMERIS_TYPE = 0
CLASSIFICATION_TYPE = U
NORAD_CAT_ID   = 67082
ELEMENT_SET_NO = 999
REV_AT_EPOCH   = 448
BSTAR          = -.3942204E-1
MEAN_MOTION_DOT = -.2112937E-1
MEAN_MOTION_DDOT = 0

CCSDS_OMM_VERS = 2.0
CREATION_DATE  = 
ORIGINATOR     = 

OBJECT_NAME    = STARLINK-36170
OBJECT_ID      = 2025-298J
CENTER_NAME    = EARTH
REF_FRAME      = TEME
TIME_SYSTEM    = UTC
MEAN_ELEMENT_THEORY = SGP/SGP4

EPOCH          = 2026-01-03T14:00:01.999872
MEAN_MOTION    = 15.52552293
ECCENTRICITY   = .0003389
INCLINATION    = 69.9993
RA_OF_ASC_NODE = 188.3828
ARG_OF_PERICENTER = 268.1533
MEAN_ANOMALY   = 11.4599

EPHEMERIS_TYPE = 0
CLASSIFICATION_TYPE = U
NORAD_CAT_ID   = 67083
ELEMENT_SET_NO = 999
REV_AT_EPOCH   = 448
BSTAR          = -.14540276E-2
MEAN_MOTION_DOT = -.88738E-3
MEAN_MOTION_DDOT = 0

CCSDS_OMM_VERS = 2.0
CREATION_DATE  = 
ORIGINATOR     = 

OBJECT_NAME    = STARLINK-36166
OBJECT_ID      = 2025-298K
CENTER_NAME    = EARTH
REF_FRAME      = TEME
TIME_SYSTEM    = UTC
MEAN_ELEMENT_THEORY = SGP/SGP4

EPOCH          = 2026-01-03T14:00:01.999872
MEAN_MOTION    = 15.52504720
ECCENTRICITY   = .00032703
INCLINATION    = 69.9993
RA_OF_ASC_NODE = 188.3811
ARG_OF_PERICENTER = 266.0916
MEAN_ANOMALY   = 15.4393

EPHEMERIS_TYPE = 0
CLASSIFICATION_TYPE = U
NORAD_CAT_ID   = 67084
ELEMENT_SET_NO = 999
REV_AT_EPOCH   = 442
BSTAR          = .54362099E-3
MEAN_MOTION_DOT = .334E-3
MEAN_MOTION_DDOT = 0

