RAISE-4                 
1 67073U 25297B   26003.67373225  .00008183  00000+0  54388-3 0  9994
2 67073  97.4867 155.6339 0011411 238.0293 121.9826 15.07383780  3096
ELECTRON KICK STAGE R/B 
1 67074U 25297C   26003.36896719  .00558413  96053-4  23083-2 0  9990
2 67074  97.4777 156.9836 0163501 190.8705 168.9009 15.68270647  3159
STARLINK-36230          
1 67075U 25298A   26003.58335648 -.00092739  00000+0 -15204-2 0  9999
2 67075  69.9991 188.4018 0003729 273.1957 351.0896 15.52552115  4485
STARLINK-36240          
1 67076U 25298B   26003.58335648 -.00105985  00000+0 -17403-2 0  9991
2 67076  69.9993 188.3987 0003530 265.4446   0.7526 15.52561595  4489
STARLINK-36243          
1 67077U 25298C   26003.58335648 -.00108596  00000+0 -17838-2 0  9995
2 67077  69.9994 188.3965 0003262 268.0794   0.0329 15.52562696  4481
STARLINK-36236          
1 67078U 25298D   26003.58335648 -.00076062  00000+0 -12443-2 0  9995
2 67078  69.9992 188.3945 0003297 271.4287 358.6043 15.52544439  4481
STARLINK-36159          
1 67079U 25298E   26003.58335648  .00025556  00000+0  58547-3 0  9992
2 67079  69.9996 188.5337 0003533 265.0528 245.1099 15.42688796  4488
STARLINK-36158          
1 67080U 25298F   26003.58335648 -.00083254  00000+0 -13632-2 0  9990
2 67080  69.9990 188.3895 0003400 269.7360   4.1282 15.52549766  4424
STARLINK-35864          
1 67081U 25298G   26003.58335648 -.00031460  00000+0 -51021-3 0  9998
2 67081  69.9995 188.3885 0003362 266.5739   9.1944 15.52543284  4486
STARLINK-36035          
1 67082U 25298H   26003.58335648 -.02112937  00000+0 -39422-1 0  9999
2 67082  69.9994 188.3873 0003504 268.7938   8.7338 15.51958612  4482
STARLINK-36170          
1 67083U 25298J   26003.58335648 -.00088738  00000+0 -14540-2 0  9994
2 67083  69.9993 188.3828 0003389 268.1533  11.4599 15.52552293  4484
STARLINK-36166          
1 67084U 25298K   26003.58335648  .00033400  00000+0  54362-3 0  9996
2 67084  69.9993 188.3811 0003270 266.0916  15.4393 15.52504720  4420
